OBJECT_NAME,OBJECT_ID,EPOCH,MEAN_MOTION,ECCENTRICITY,INCLINATION,RA_OF_ASC_NODE,ARG_OF_PERICENTER,MEAN_ANOMALY,EPHEMERIS_TYPE,CLASSIFICATION_TYPE,NORAD_CAT_ID,ELEMENT_SET_NO,REV_AT_EPOCH,BSTAR,MEAN_MOTION_DOT,MEAN_MOTION_DDOT
ASTRA 1M,2008-057A,2026-06-30T12:27:11.296800,1.00270928,.00050215,0.3294,82.6617,29.7944,12.3073,0,U,33436,999,4587,0,.131E-5,0
EUTELSAT HOTBIRD 13C,2008-065A,2026-06-30T12:07:35.676192,1.00271907,.00034947,2.9828,79.0419,19.0586,312.0688,0,U,33459,999,4747,0,-.274E-5,0
EXPRESS-AM44,2009-007A,2026-06-30T14:01:28.132896,1.00272066,.00042998,3.4971,78.2383,12.7007,27.0642,0,U,33595,999,5242,0,-.81E-6,0
NSS-9,2009-008A,2026-06-30T10:30:38.862720,1.00271763,.0002442,1.2944,82.5421,7.8133,168.8781,0,U,33749,999,6365,0,.81E-6,0
TELSTAR 11N,2009-009A,2026-06-30T12:11:12.828768,1.00270347,.00027596,0.0186,25.7793,74.2553,323.7815,0,U,34111,999,4637,0,-.24E-5,0
WGS F2 (USA 204),2009-017A,2026-06-29T23:43:38.631648,1.00271247,.00005348,0.0185,12.9452,129.0245,189.5246,0,U,34713,999,4574,0,.79E-6,0
SES-7 (PROTOSTAR 2),2009-027A,2026-06-30T07:44:52.780704,1.00269967,.00001934,0.0443,70.6570,8.9649,63.2199,0,U,34941,999,6276,0,-.334E-5,0
MEASAT-3A,2009-032A,2026-06-30T13:31:54.443712,1.00271916,.00032821,0.0260,334.9916,116.5535,190.0714,0,U,35362,999,816,0,-.1E-5,0
GOES 14,2009-033A,2026-06-30T13:00:04.486176,1.00106579,.00022785,1.7229,82.8929,23.4204,141.3212,0,U,35491,999,672,0,-.324E-5,0
FM-5,2009-034A,2026-06-30T03:24:03.799296,1.00272155,.00010401,0.0344,280.3187,70.2395,252.5130,0,U,35493,999,4677,0,-.189E-5,0
TERRESTAR-1,2009-035A,2026-06-30T09:30:38.719008,1.00270755,.00026066,5.1873,48.7895,41.8300,219.4885,0,U,35496,999,6226,0,-.49E-6,0
ASIASAT 5,2009-042A,2026-06-30T17:22:21.774432,1.00272017,.0001379,0.0229,61.4701,12.3658,206.0491,0,U,35696,999,6184,0,-.297E-5,0
JCSAT-12 (JCSAT-RA),2009-044A,2026-06-30T12:59:34.533888,1.00273278,.00005312,0.0356,287.2152,243.6707,74.6490,0,U,35755,999,6174,0,-.317E-5,0
OPTUS D3,2009-044B,2026-06-29T23:25:11.906400,1.00272786,.00034184,0.8809,268.5859,192.5334,324.3687,0,U,35756,999,6169,0,-.134E-5,0
NIMIQ 5,2009-050A,2026-06-30T14:41:56.453280,1.00271111,.00030319,0.0304,279.9511,170.9963,335.5151,0,U,35873,999,6147,0,-.246E-5,0
AMAZONAS 2,2009-054A,2026-06-30T12:01:21.273888,1.00269715,.00035632,1.8484,82.8923,19.6898,284.3130,0,U,35942,999,6131,0,-.25E-5,0
COMSATBW-1,2009-054B,2026-06-30T12:39:50.160960,1.00272321,.00031677,0.0662,127.3215,333.5253,70.7160,0,U,35943,999,6144,0,.35E-6,0
NSS-12,2009-058A,2026-06-30T12:38:12.816672,1.00271667,.00049593,0.0685,276.8599,150.7405,97.5374,0,U,36032,999,6105,0,.82E-6,0
THOR 6,2009-058B,2026-06-30T07:13:44.613984,1.00269537,.00022102,0.0162,46.5543,70.6578,268.7587,0,U,36033,999,6113,0,0,0
INTELSAT 14 (IS-14),2009-064A,2026-06-30T10:26:25.847232,1.00270513,.00027525,0.0277,288.5662,173.0232,288.5225,0,U,36097,999,6073,0,-.263E-5,0
EUTELSAT 36B,2009-065A,2026-06-30T12:36:20.495808,1.00274378,.00058348,0.5234,81.2557,17.1956,59.7308,0,U,36101,999,6084,0,.122E-5,0
INTELSAT 15 (IS-15),2009-067A,2026-06-30T11:03:34.011648,1.00268948,.00026805,0.0143,313.7041,149.3627,66.4869,0,U,36106,999,4136,0,-.174E-5,0
WGS F3 (USA 211),2009-068A,2026-06-29T23:46:16.618368,1.00271552,.00006519,0.3115,85.8108,344.7305,74.1066,0,U,36108,999,4672,0,.75E-6,0
DIRECTV 12,2009-075A,2026-06-30T14:21:22.644000,1.00273225,.00004902,0.0173,192.7565,284.2288,274.3004,0,U,36131,999,4668,0,-.93E-6,0
BEIDOU-2 G1,2010-001A,2026-06-30T13:01:56.806176,1.00272137,.00021704,4.3239,60.3685,309.0938,245.1175,0,U,36287,999,6030,0,-.272E-5,0
SDO,2010-005A,2026-06-30T05:53:38.601888,1.00270579,.00014936,34.6771,86.1450,51.4419,126.9147,0,U,36395,999,6019,0,-.9E-6,0
INTELSAT 16 (IS-16),2010-006A,2026-06-30T12:00:13.881024,1.00270772,.00025778,0.0119,19.5060,97.5840,265.3325,0,U,36397,999,5978,0,-.234E-5,0
EWS-G2 (GOES 15),2010-008A,2026-06-30T12:40:05.136672,1.00268232,.00053953,1.3127,82.6673,44.8025,44.6480,0,U,36411,999,5977,0,.31E-6,0
ECHOSTAR 14,2010-010A,2026-06-30T14:31:09.304320,1.00271372,.00023459,0.0154,320.7663,127.6514,289.1441,0,U,36499,999,4668,0,.11E-6,0
SES-1,2010-016A,2026-06-30T14:21:22.694112,1.00272165,.00029508,0.0206,320.6511,135.1829,297.1768,0,U,36516,999,5916,0,-.104E-5,0
ASTRA 3B,2010-021A,2026-06-30T07:20:36.456000,1.00270152,.00042094,1.5028,83.4002,12.4507,316.1631,0,U,36581,999,5899,0,.146E-5,0
COMSATBW-2,2010-021B,2026-06-30T07:17:44.231424,1.00269743,.00026399,0.0379,189.5330,277.3241,294.1816,0,U,36582,999,5908,0,.99E-6,0
