ASTRA 1M                
1 33436U 08057A   26181.51888075  .00000131  00000+0  00000+0 0  9992
2 33436   0.3294  82.6617 0005021  29.7944  12.3073  1.00270928 45871
EUTELSAT HOTBIRD 13C    
1 33459U 08065A   26181.50527403 -.00000274  00000+0  00000+0 0  9999
2 33459   2.9828  79.0419 0003494  19.0586 312.0688  1.00271907 47471
EXPRESS-AM44            
1 33595U 09007A   26181.58435339 -.00000081  00000+0  00000+0 0  9997
2 33595   3.4971  78.2383 0004299  12.7007  27.0642  1.00272066 52421
NSS-9                   
1 33749U 09008A   26181.43794980  .00000081  00000+0  00000+0 0  9992
2 33749   1.2944  82.5421 0002442   7.8133 168.8781  1.00271763 63650
TELSTAR 11N             
1 34111U 09009A   26181.50778737 -.00000240  00000+0  00000+0 0  9995
2 34111   0.0186  25.7793 0002759  74.2553 323.7815  1.00270347 46372
WGS F2 (USA 204)        
1 34713U 09017A   26180.98864157  .00000079  00000+0  00000+0 0  9994
2 34713   0.0185  12.9452 0000534 129.0245 189.5246  1.00271247 45741
SES-7 (PROTOSTAR 2)     
1 34941U 09027A   26181.32283311 -.00000334  00000+0  00000+0 0  9999
2 34941   0.0443  70.6570 0000193   8.9649  63.2199  1.00269967 62769
MEASAT-3A               
1 35362U 09032A   26181.56382458 -.00000100  00000+0  00000+0 0  9992
2 35362   0.0260 334.9916 0003282 116.5535 190.0714  1.00271916  8169
GOES 14                 
1 35491U 09033A   26181.54171859 -.00000324  00000+0  00000+0 0  9993
2 35491   1.7229  82.8929 0002278  23.4204 141.3212  1.00106579  6725
FM-5                    
1 35493U 09034A   26181.14171064 -.00000189  00000+0  00000+0 0  9999
2 35493   0.0344 280.3187 0001040  70.2395 252.5130  1.00272155 46772
TERRESTAR-1             
1 35496U 09035A   26181.39628147 -.00000049  00000+0  00000+0 0  9994
2 35496   5.1873  48.7895 0002606  41.8300 219.4885  1.00270755 62264
ASIASAT 5               
1 35696U 09042A   26181.72386313 -.00000297  00000+0  00000+0 0  9992
2 35696   0.0229  61.4701 0001379  12.3658 206.0491  1.00272017 61849
JCSAT-12 (JCSAT-RA)     
1 35755U 09044A   26181.54137192 -.00000317  00000+0  00000+0 0  9992
2 35755   0.0356 287.2152 0000531 243.6707  74.6490  1.00273278 61744
OPTUS D3                
1 35756U 09044B   26180.97583225 -.00000134  00000+0  00000+0 0  9998
2 35756   0.8809 268.5859 0003418 192.5334 324.3687  1.00272786 61697
NIMIQ 5                 
1 35873U 09050A   26181.61245895 -.00000246  00000+0  00000+0 0  9999
2 35873   0.0304 279.9511 0003031 170.9963 335.5151  1.00271111 61476
AMAZONAS 2              
1 35942U 09054A   26181.50094067 -.00000250  00000+0  00000+0 0  9996
2 35942   1.8484  82.8923 0003563  19.6898 284.3130  1.00269715 61313
COMSATBW-1              
1 35943U 09054B   26181.52766390  .00000035  00000+0  00000+0 0  9994
2 35943   0.0662 127.3215 0003167 333.5253  70.7160  1.00272321 61446
NSS-12                  
1 36032U 09058A   26181.52653723  .00000082  00000+0  00000+0 0  9995
2 36032   0.0685 276.8599 0004959 150.7405  97.5374  1.00271667 61057
THOR 6                  
1 36033U 09058B   26181.30121081  .00000000  00000+0  00000+0 0  9999
2 36033   0.0162  46.5543 0002210  70.6578 268.7587  1.00269537 61138
INTELSAT 14 (IS-14)     
1 36097U 09064A   26181.43502138 -.00000263  00000+0  00000+0 0  9998
2 36097   0.0277 288.5662 0002752 173.0232 288.5225  1.00270513 60731
EUTELSAT 36B            
1 36101U 09065A   26181.52523722  .00000122  00000+0  00000+0 0  9990
2 36101   0.5234  81.2557 0005834  17.1956  59.7308  1.00274378 60846
INTELSAT 15 (IS-15)     
1 36106U 09067A   26181.46081032 -.00000174  00000+0  00000+0 0  9991
2 36106   0.0143 313.7041 0002680 149.3627  66.4869  1.00268948 41364
WGS F3 (USA 211)        
1 36108U 09068A   26180.99047012  .00000075  00000+0  00000+0 0  9990
2 36108   0.3115  85.8108 0000651 344.7305  74.1066  1.00271552 46724
DIRECTV 12              
1 36131U 09075A   26181.59817875 -.00000093  00000+0  00000+0 0  9994
2 36131   0.0173 192.7565 0000490 284.2288 274.3004  1.00273225 46685
BEIDOU-2 G1             
1 36287U 10001A   26181.54301859 -.00000272  00000+0  00000+0 0  9991
2 36287   4.3239  60.3685 0002170 309.0938 245.1175  1.00272137 60306
SDO                     
1 36395U 10005A   26181.24558567 -.00000090  00000+0  00000+0 0  9990
2 36395  34.6771  86.1450 0001493  51.4419 126.9147  1.00270579 60198
INTELSAT 16 (IS-16)     
1 36397U 10006A   26181.50016066 -.00000234  00000+0  00000+0 0  9995
2 36397   0.0119  19.5060 0002577  97.5840 265.3325  1.00270772 59787
EWS-G2 (GOES 15)        
1 36411U 10008A   26181.52783723  .00000031  00000+0  00000+0 0  9991
2 36411   1.3127  82.6673 0005395  44.8025  44.6480  1.00268232 59776
ECHOSTAR 14             
1 36499U 10010A   26181.60496880  .00000011  00000+0  00000+0 0  9992
2 36499   0.0154 320.7663 0002345 127.6514 289.1441  1.00271372 46686
SES-1                   
1 36516U 10016A   26181.59817933 -.00000104  00000+0  00000+0 0  9996
2 36516   0.0206 320.6511 0002950 135.1829 297.1768  1.00272165 59169
ASTRA 3B                
1 36581U 10021A   26181.30597750  .00000146  00000+0  00000+0 0  9990
2 36581   1.5028  83.4002 0004209  12.4507 316.1631  1.00270152 58992
COMSATBW-2              
1 36582U 10021B   26181.30398416  .00000099  00000+0  00000+0 0  9996
2 36582   0.0379 189.5330 0002639 277.3241 294.1816  1.00269743 59085
